[Satellite]
VERSION=1.1
NAME=MOLNIYA 1-32
NICKNAME=MOLNIYA 1-32
TLE1=1 08601U 76006A   18019.70553799  .00000413  00000-0 -10075-1 0  9991
TLE2=2 08601  62.1918 178.6555 7166788 270.3408  15.4858  2.00083867306800
